[{"OBJECT_NAME":"STARLINK-31487","OBJECT_ID":"2024-056B","EPOCH":"2026-03-09T12:07:28.797024","MEAN_MOTION":15.27601209,"ECCENTRICITY":0.00018212,"INCLINATION":43.0054,"RA_OF_ASC_NODE":231.9648,"ARG_OF_PERICENTER":256.8668,"MEAN_ANOMALY":103.1981,"EPHEMERIS_TYPE":0,"CLASSIFICATION_TYPE":"U","NORAD_CAT_ID":59297,"ELEMENT_SET_NO":999,"REV_AT_EPOCH":11124,"BSTAR":4.6195658e-5,"MEAN_MOTION_DOT":1.01e-5,"MEAN_MOTION_DDOT":0},{"OBJECT_NAME":"TEVEL2-6","OBJECT_ID":"2025-052F","EPOCH":"2026-03-09T15:35:24.554400","MEAN_MOTION":15.30760889,"ECCENTRICITY":0.0004769,"INCLINATION":97.4016,"RA_OF_ASC_NODE":325.0381,"ARG_OF_PERICENTER":95.6604,"MEAN_ANOMALY":264.5181,"EPHEMERIS_TYPE":0,"CLASSIFICATION_TYPE":"U","NORAD_CAT_ID":63215,"ELEMENT_SET_NO":999,"REV_AT_EPOCH":5486,"BSTAR":0.00070909,"MEAN_MOTION_DOT":0.00021046,"MEAN_MOTION_DDOT":0}]
